NORAD_CAT_ID,OBJECT_NAME,OBJECT_TYPE,EPOCH,MEAN_MOTION,ECCENTRICITY,INCLINATION,RA_OF_ASC_NODE,ARG_OF_PERICENTER,MEAN_ANOMALY,BSTAR,MEAN_MOTION_DOT,MEAN_MOTION_DDOT,TLE_LINE0,TLE_LINE1,TLE_LINE2,SEMIMAJOR_AXIS,PERIOD,APOGEE,PERIGEE,DECAYED
53845.0,STARLINK-4753,PAYLOAD,2024-04-03 09:06:57,15.08839785,0.0001521,53.2183,220.4126,98.0868,262.0297,5.7606e-06,-1.96e-06,0.0,0 STARLINK-4753,1 53845U 22114AD  24094.37982805 -.00000196  00000-0  57606-5 0  9992,2 53845  53.2183 220.4126 0001521  98.0868 262.0297 15.08839785 85953,6917.881,95.438,540.798,538.694,0.0
53845.0,STARLINK-4753,PAYLOAD,2024-04-03 15:28:29,15.08838731,0.000149,53.2182,219.2227,98.3264,261.7897,3.0335e-05,1.95e-06,0.0,0 STARLINK-4753,1 53845U 22114AD  24094.64478900  .00000195  00000-0  30335-4 0  9995,2 53845  53.2182 219.2227 0001490  98.3264 261.7897 15.08838731 86535,6917.884,95.438,540.78,538.719,0.0
53845.0,STARLINK-4753,PAYLOAD,2024-04-03 17:03:52,15.08842561,0.000151,53.217,218.9244,102.9851,257.131,0.00011836,1.596e-05,0.0,0 STARLINK-4753,1 53845U 22114AD  24094.71102766  .00001596  00000-0  11836-3 0  9997,2 53845  53.2170 218.9244 0001510 102.9851 257.1310 15.08842561 86540,6917.873,95.437,540.782,538.693,0.0
53845.0,STARLINK-4753,PAYLOAD,2024-04-04 13:43:53,15.08838497,0.000152,53.2171,215.0577,100.5354,259.5809,3.2905e-05,2.36e-06,0.0,0 STARLINK-4753,1 53845U 22114AD  24095.57215050  .00000236  00000-0  32905-4 0  9994,2 53845  53.2171 215.0577 0001520 100.5354 259.5809 15.08838497 86138,6917.885,95.438,540.802,538.698,0.0
53845.0,STARLINK-4753,PAYLOAD,2024-04-04 15:19:16,15.08840431,0.0001442,53.2172,214.7602,95.5149,264.6008,8.4877e-05,1.063e-05,0.0,0 STARLINK-4753,1 53845U 22114AD  24095.63839013  .00001063  00000-0  84877-4 0  9996,2 53845  53.2172 214.7602 0001442  95.5149 264.6008 15.08840431 86681,6917.879,95.438,540.742,538.747,0.0
53845.0,STARLINK-4753,PAYLOAD,2024-04-05 13:34:40,15.08851328,0.0001355,53.2164,210.5959,88.1068,272.0079,0.00033305,5.018e-05,0.0,0 STARLINK-4753,1 53845U 22114AD  24096.56574664  .00005018  00000-0  33305-3 0  9990,2 53845  53.2164 210.5959 0001355  88.1068 272.0079 15.08851328 86826,6917.846,95.437,540.648,538.773,0.0
53845.0,STARLINK-4753,PAYLOAD,2024-04-05 16:45:26,15.0885904,0.0001406,53.2165,210.0014,87.9411,272.1742,0.00052401,8.066e-05,0.0,0 STARLINK-4753,1 53845U 22114AD  24096.69822395  .00008066  00000-0  52401-3 0  9995,2 53845  53.2165 210.0014 0001406  87.9411 272.1742 15.08859040 86300,6917.822,95.436,540.66,538.715,0.0
53845.0,STARLINK-4753,PAYLOAD,2024-04-06 00:42:22,15.0884326,0.0001822,53.2168,208.5142,87.386,272.734,0.00013927,1.929e-05,0.0,0 STARLINK-4753,1 53845U 22114AD  24097.02942990  .00001929  00000-0  13927-3 0  9998,2 53845  53.2168 208.5142 0001822  87.3860 272.7340 15.08843260 86353,6917.87,95.437,540.996,538.475,0.0
53845.0,STARLINK-4753,PAYLOAD,2024-04-06 13:25:27,15.08846499,0.0002068,53.217,206.1352,87.1404,272.9824,0.00021968,3.21e-05,0.0,0 STARLINK-4753,1 53845U 22114AD  24097.55934892  .00003210  00000-0  21968-3 0  9997,2 53845  53.2170 206.1352 0002068  87.1404 272.9824 15.08846499 86972,6917.861,95.437,541.156,538.295,0.0
53845.0,STARLINK-4753,PAYLOAD,2024-04-06 16:36:14,15.08840482,0.0001716,53.2171,205.5403,88.5381,271.5808,8.94e-05,1.135e-05,0.0,0 STARLINK-4753,1 53845U 22114AD  24097.69183012  .00001135  00000-0  89400-4 0  9992,2 53845  53.2171 205.5403 0001716  88.5381 271.5808 15.08840482 86996,6917.879,95.438,540.931,538.557,0.0
53845.0,STARLINK-4753,PAYLOAD,2024-04-07 06:54:42,15.08838487,0.000184,53.2168,202.8656,86.6404,273.4799,0.00019901,2.88e-05,0.0,0 STARLINK-4753,1 53845U 22114AD  24098.28799327  .00002880  00000-0  19901-3 0  9996,2 53845  53.2168 202.8656 0001840  86.6404 273.4799 15.08838487 86548,6917.885,95.438,541.023,538.477,0.0
53845.0,STARLINK-4753,PAYLOAD,2024-04-07 13:16:15,15.08843405,0.0001684,53.2171,201.6731,90.8538,269.2648,0.0002492,3.681e-05,0.0,0 STARLINK-4753,1 53845U 22114AD  24098.55295202  .00003681  00000-0  24920-3 0  9996,2 53845  53.2171 201.6731 0001684  90.8538 269.2648 15.08843405 87121,6917.87,95.437,540.9,538.57,0.0
53845.0,STARLINK-4753,PAYLOAD,2024-04-08 13:07:02,15.08844501,0.0001728,53.2152,197.2125,93.2116,266.9074,0.00026076,3.865e-05,0.0,0 STARLINK-4753,1 53845U 22114AD  24099.54655333  .00003865  00000-0  26076-3 0  9999,2 53845  53.2152 197.2125 0001728  93.2116 266.9074 15.08844501 86736,6917.867,95.437,540.927,538.536,0.0
53845.0,STARLINK-4753,PAYLOAD,2024-04-09 12:57:49,15.08847771,0.0001456,53.2161,192.7542,87.8013,272.3145,0.00019366,2.796e-05,0.0,0 STARLINK-4753,1 53845U 22114AD  24100.54015131  .00002796  00000-0  19366-3 0  9994,2 53845  53.2161 192.7542 0001456  87.8013 272.3145 15.08847771 87421,6917.857,95.437,540.729,538.714,0.0
53845.0,STARLINK-4753,PAYLOAD,2024-04-09 16:08:35,15.08849406,0.0001384,53.2164,192.1595,88.0104,272.1046,0.0002045,2.969e-05,0.0,0 STARLINK-4753,1 53845U 22114AD  24100.67262996  .00002969  00000-0  20450-3 0  9999,2 53845  53.2164 192.1595 0001384  88.0104 272.1046 15.08849406 86907,6917.852,95.437,540.674,538.759,0.0
53845.0,STARLINK-4753,PAYLOAD,2024-04-10 12:48:35,15.0884871,0.000143,53.2152,188.2942,97.9678,262.1477,0.00015592,2.195e-05,0.0,0 STARLINK-4753,1 53845U 22114AD  24101.53374658  .00002195  00000-0  15592-3 0  9996,2 53845  53.2152 188.2942 0001430  97.9678 262.1477 15.08848710 87571,6917.854,95.437,540.708,538.73,0.0
53845.0,STARLINK-4753,PAYLOAD,2024-04-10 22:20:54,15.088483,9.81e-05,53.2155,186.5084,80.3041,279.8062,0.00015826,2.232e-05,0.0,0 STARLINK-4753,1 53845U 22114AD  24101.93118585  .00002232  00000-0  15826-3 0  9997,2 53845  53.2155 186.5084 0000981  80.3041 279.8062 15.08848300 87639,6917.855,95.437,540.399,539.041,0.0
53845.0,STARLINK-4753,PAYLOAD,2024-04-11 12:39:23,15.08831148,0.0001403,53.2162,183.835,89.6294,270.4859,-0.00011085,-2.051e-05,0.0,0 STARLINK-4753,1 53845U 22114AD  24102.52735752 -.00002051  00000-0 -11085-3 0  9998,2 53845  53.2162 183.8350 0001403  89.6294 270.4859 15.08831148 87188,6917.907,95.438,540.743,538.802,0.0
53845.0,STARLINK-4753,PAYLOAD,2024-04-11 22:11:42,15.0883294,0.0001344,53.2164,182.0504,85.6176,274.497,-3.1326e-05,-7.86e-06,0.0,0 STARLINK-4753,1 53845U 22114AD  24102.92479837 -.00000786  00000-0 -31326-4 0  9995,2 53845  53.2164 182.0504 0001344  85.6176 274.4970 15.08832940 87786,6917.902,95.438,540.697,538.837,0.0
53845.0,STARLINK-4753,PAYLOAD,2024-04-12 12:30:10,15.08842271,0.00013,53.2162,179.3748,87.1923,272.9218,0.00010242,1.343e-05,0.0,0 STARLINK-4753,1 53845U 22114AD  24103.52095641  .00001343  00000-0  10242-3 0  9990,2 53845  53.2162 179.3748 0001300  87.1923 272.9218 15.08842271 87339,6917.873,95.437,540.638,538.839,0.0
53845.0,STARLINK-4753,PAYLOAD,2024-04-13 10:45:34,15.08844762,0.0001326,53.2157,175.2111,78.8563,281.2578,0.00025999,3.853e-05,0.0,0 STARLINK-4753,1 53845U 22114AD  24104.44831810  .00003853  00000-0  25999-3 0  9991,2 53845  53.2157 175.2111 0001326  78.8563 281.2578 15.08844762 88012,6917.866,95.437,540.648,538.814,0.0
53845.0,STARLINK-4753,PAYLOAD,2024-04-14 04:14:49,15.08846162,0.0001576,53.2163,171.9404,78.769,281.3479,0.00016648,2.363e-05,0.0,0 STARLINK-4753,1 53845U 22114AD  24105.17695726  .00002363  00000-0  16648-3 0  9992,2 53845  53.2163 171.9404 0001576  78.7690 281.3479 15.08846162 87582,6917.862,95.437,540.817,538.636,0.0
53845.0,STARLINK-4753,PAYLOAD,2024-04-14 10:36:21,15.08847166,0.0001716,53.2165,170.7499,64.0043,296.1125,0.00013219,1.817e-05,0.0,0 STARLINK-4753,1 53845U 22114AD  24105.44191792  .00001817  00000-0  13219-3 0  9990,2 53845  53.2165 170.7499 0001716  64.0043 296.1125 15.08847166 88163,6917.858,95.437,540.911,538.536,0.0
53845.0,STARLINK-4753,PAYLOAD,2024-04-15 10:27:08,15.08845356,0.0001998,53.2164,166.2918,61.9441,298.1753,0.00012915,1.768e-05,0.0,0 STARLINK-4753,1 53845U 22114AD  24106.43551900  .00001768  00000-0  12915-3 0  9998,2 53845  53.2164 166.2918 0001998  61.9441 298.1753 15.08845356 87772,6917.864,95.437,541.111,538.347,0.0
53845.0,STARLINK-4753,PAYLOAD,2024-04-15 13:37:54,15.08848382,0.0001716,53.2164,165.694,81.6012,278.5174,0.00016912,2.405e-05,0.0,0 STARLINK-4753,1 53845U 22114AD  24106.56799532  .00002405  00000-0  16912-3 0  9997,2 53845  53.2164 165.6940 0001716  81.6012 278.5174 15.08848382 88335,6917.855,95.437,540.907,538.533,0.0
53845.0,STARLINK-4753,PAYLOAD,2024-04-16 10:17:55,15.0884682,0.0001756,53.2164,161.8287,92.9267,267.1926,0.00019285,2.783e-05,0.0,0 STARLINK-4753,1 53845U 22114AD  24107.42911585  .00002783  00000-0  19285-3 0  9992,2 53845  53.2164 161.8287 0001756  92.9267 267.1926 15.08846820 88466,6917.86,95.437,540.939,538.51,0.0
53845.0,STARLINK-4753,PAYLOAD,2024-04-17 03:47:09,15.088513,0.0001773,53.217,158.5572,92.4505,267.669,6.7625e-05,7.89e-06,0.0,0 STARLINK-4753,1 53845U 22114AD  24108.15775319  .00000789  00000-0  67625-4 0  9992,2 53845  53.2170 158.5572 0001773  92.4505 267.6690 15.08851300 88037,6917.846,95.437,540.937,538.484,0.0
53845.0,STARLINK-4753,PAYLOAD,2024-04-17 08:33:19,15.08850811,0.0001787,53.2168,157.6654,93.0963,267.0233,0.00017122,2.439e-05,0.0,0 STARLINK-4753,1 53845U 22114AD  24108.35647262  .00002439  00000-0  17122-3 0  9999,2 53845  53.2168 157.6654 0001787  93.0963 267.0233 15.08850811 88601,6917.847,95.437,540.949,538.476,0.0
53845.0,STARLINK-4753,PAYLOAD,2024-04-18 09:59:30,15.08828217,0.0001549,53.2156,152.9066,94.8749,265.242,-0.00012573,-2.288e-05,0.0,0 STARLINK-4753,1 53845U 22114AD  24109.41632551 -.00002288  00000-0 -12573-3 0  9991,2 53845  53.2156 152.9066 0001549  94.8749 265.2420 15.08828217 88221,6917.916,95.438,540.853,538.71,0.0
53845.0,STARLINK-4753,PAYLOAD,2024-04-19 08:14:54,15.08838638,0.0001455,53.2151,148.7432,87.6469,272.4689,0.00010607,1.4e-05,0.0,0 STARLINK-4753,1 53845U 22114AD  24110.34368777  .00001400  00000-0  10607-3 0  9990,2 53845  53.2151 148.7432 0001455  87.6469 272.4689 15.08838638 88361,6917.885,95.438,540.756,538.743,0.0
